{
  "norad_id": 61244,
  "name": "STARLINK-11276 [DTC]",
  "history": [
    {
      "epoch": "2026-03-28T21:31:35.875200Z",
      "apogee_km": 359.93527114431345,
      "perigee_km": 359.5156370706718,
      "latitude_deg": -4.259959988138665e-06,
      "longitude_deg": 172.33811353912338,
      "height_km": 360.7612627064384,
      "semi_major_axis_km": 6737.862454107492,
      "eccentricity": 3.114e-05,
      "inclination_deg": 53.1602,
      "raan_deg": 321.5484,
      "arg_perigee_deg": 125.2319,
      "mean_anomaly_deg": 234.8728,
      "mean_motion_rev_day": 15.69710453
    },
    {
      "epoch": "2026-03-29T00:34:59.105280Z",
      "apogee_km": 360.0829298251492,
      "perigee_km": 359.4630421064403,
      "latitude_deg": -2.1708748914663662e-05,
      "longitude_deg": 125.73868445557507,
      "height_km": 360.75613826733905,
      "semi_major_axis_km": 6737.9099859657945,
      "eccentricity": 4.6e-05,
      "inclination_deg": 53.1591,
      "raan_deg": 320.9213,
      "arg_perigee_deg": 102.8155,
      "mean_anomaly_deg": 257.2914,
      "mean_motion_rev_day": 15.69693843
    }
  ]
}